NORAD_CAT_ID,OBJECT_NAME,OBJECT_TYPE,EPOCH,MEAN_MOTION,ECCENTRICITY,INCLINATION,RA_OF_ASC_NODE,ARG_OF_PERICENTER,MEAN_ANOMALY,BSTAR,MEAN_MOTION_DOT,MEAN_MOTION_DDOT,TLE_LINE0,TLE_LINE1,TLE_LINE2,SEMIMAJOR_AXIS,PERIOD,APOGEE,PERIGEE,DECAYED
52312.0,STARLINK-3752,PAYLOAD,2023-10-25 11:59:34,15.0884833,0.0001593,53.218,17.552,86.8869,273.2305,0.00016103,2.276e-05,0.0,0 STARLINK-3752,1 52312U 22041BD  23298.49970291  .00002276  00000-0  16103-3 0  9998,2 52312  53.2180  17.5520 0001593  86.8869 273.2305 15.08848330 85103,6917.855,95.437,540.822,538.618,0.0
52312.0,STARLINK-3752,PAYLOAD,2023-10-26 11:50:21,15.08848567,0.0001656,53.2182,13.0922,79.6643,280.4536,0.00030537,4.576e-05,0.0,0 STARLINK-3752,1 52312U 22041BD  23299.49330411  .00004576  00000-0  30537-3 0  9995,2 52312  53.2182  13.0922 0001656  79.6643 280.4536 15.08848567 85256,6917.854,95.437,540.865,538.574,0.0
52312.0,STARLINK-3752,PAYLOAD,2023-10-27 11:41:07,15.08857757,0.0001698,53.2191,8.6338,89.5234,270.5953,0.00030453,4.564e-05,0.0,0 STARLINK-3752,1 52312U 22041BD  23300.48689597  .00004564  00000-0  30453-3 0  9993,2 52312  53.2191   8.6338 0001698  89.5234 270.5953 15.08857757 85400,6917.826,95.436,540.866,538.516,0.0
52312.0,STARLINK-3752,PAYLOAD,2023-10-27 14:51:53,15.08862989,0.0001639,53.2182,8.0359,87.3032,272.8148,0.00039826,6.06e-05,0.0,0 STARLINK-3752,1 52312U 22041BD  23300.61937331  .00006060  00000-0  39826-3 0  9996,2 52312  53.2182   8.0359 0001639  87.3032 272.8148 15.08862989 85420,6917.81,95.436,540.809,538.541,0.0
52312.0,STARLINK-3752,PAYLOAD,2023-10-27 21:13:27,15.0883088,0.0002034,53.2189,6.8484,90.82,269.3025,-0.00026722,-4.538e-05,0.0,0 STARLINK-3752,1 52312U 22041BD  23300.88434459 -.00004538  00000-0 -26722-3 0  9999,2 52312  53.2189   6.8484 0002034  90.8200 269.3025 15.08830880 85462,6917.908,95.438,541.18,538.366,0.0
52312.0,STARLINK-3752,PAYLOAD,2023-10-28 11:31:55,15.08833454,0.0001615,53.2184,4.1722,97.8026,262.3149,-0.00011312,-2.088e-05,0.0,0 STARLINK-3752,1 52312U 22041BD  23301.48050470 -.00002088  00000-0 -11312-3 0  9990,2 52312  53.2184   4.1722 0001615  97.8026 262.3149 15.08833454 85550,6917.9,95.438,540.883,538.648,0.0
52312.0,STARLINK-3752,PAYLOAD,2023-10-28 21:04:14,15.08842144,0.0001622,53.2186,2.3882,97.0392,263.0784,0.00012592,1.717e-05,0.0,0 STARLINK-3752,1 52312U 22041BD  23301.87794326  .00001717  00000-0  12592-3 0  9995,2 52312  53.2186   2.3882 0001622  97.0392 263.0784 15.08842144 85611,6917.874,95.437,540.861,538.617,0.0
52312.0,STARLINK-3752,PAYLOAD,2023-10-29 11:22:42,15.08855669,0.0001577,53.2176,359.7113,95.4539,264.6633,0.00076579,0.00011926,0.0,0 STARLINK-3752,1 52312U 22041BD  23302.47410194  .00011926  00000-0  76579-3 0  9998,2 52312  53.2176 359.7113 0001577  95.4539 264.6633 15.08855669 85706,6917.832,95.437,540.788,538.607,0.0
52312.0,STARLINK-3752,PAYLOAD,2023-10-29 20:55:01,15.08852378,0.0001807,53.2176,357.9261,74.3152,285.8039,0.00041984,6.402e-05,0.0,0 STARLINK-3752,1 52312U 22041BD  23302.87154153  .00006402  00000-0  41984-3 0  9997,2 52312  53.2176 357.9261 0001807  74.3152 285.8039 15.08852378 85768,6917.843,95.437,540.958,538.458,0.0
52312.0,STARLINK-3752,PAYLOAD,2023-10-30 04:51:57,15.08833243,0.0001641,53.2178,356.4412,84.9757,275.1422,-0.0001446,-2.588e-05,0.0,0 STARLINK-3752,1 52312U 22041BD  23303.20274605 -.00002588  00000-0 -14460-3 0  9992,2 52312  53.2178 356.4412 0001641  84.9757 275.1422 15.08833243 85810,6917.901,95.438,540.901,538.631,0.0
52312.0,STARLINK-3752,PAYLOAD,2023-10-30 11:13:29,15.08832541,0.0001678,53.2173,355.2512,80.1331,279.9851,9.4729e-05,1.22e-05,0.0,0 STARLINK-3752,1 52312U 22041BD  23303.46770744  .00001220  00000-0  94729-4 0  9992,2 52312  53.2173 355.2512 0001678  80.1331 279.9851 15.08832541 85851,6917.903,95.438,540.929,538.607,0.0
52312.0,STARLINK-3752,PAYLOAD,2023-10-31 09:28:54,15.088348,0.000157,53.2176,351.0878,87.2811,272.8361,0.0005587,8.614e-05,0.0,0 STARLINK-3752,1 52312U 22041BD  23304.39507664  .00008614  00000-0  55870-3 0  9991,2 52312  53.2176 351.0878 0001570  87.2811 272.8361 15.08834800 85998,6917.896,95.438,540.847,538.675,0.0
52312.0,STARLINK-3752,PAYLOAD,2023-10-31 20:36:36,15.0884345,0.0001622,53.2163,349.006,83.4887,276.629,0.0006433,9.966e-05,0.0,0 STARLINK-3752,1 52312U 22041BD  23304.85875679  .00009966  00000-0  64330-3 0  9998,2 52312  53.2163 349.0060 0001622  83.4887 276.6290 15.08843450 86066,6917.87,95.437,540.857,538.613,0.0
52312.0,STARLINK-3752,PAYLOAD,2023-11-01 09:19:41,15.08858666,0.0001714,53.2176,346.6279,85.6341,274.4847,0.00087486,0.0001367,0.0,0 STARLINK-3752,1 52312U 22041BD  23305.38867305  .00013670  00000-0  87486-3 0  9998,2 52312  53.2176 346.6279 0001714  85.6341 274.4847 15.08858666 86144,6917.823,95.436,540.874,538.503,0.0
52312.0,STARLINK-3752,PAYLOAD,2023-11-01 20:27:23,15.08853319,0.000191,53.2179,344.5451,87.7835,272.3376,0.00042747,6.524e-05,0.0,0 STARLINK-3752,1 52312U 22041BD  23305.85235214  .00006524  00000-0  42747-3 0  9999,2 52312  53.2179 344.5451 0001910  87.7835 272.3376 15.08853319 86217,6917.84,95.437,541.026,538.383,0.0
52312.0,STARLINK-3752,PAYLOAD,2023-11-02 12:21:14,15.08850239,0.0001743,53.2168,341.5702,94.8777,265.2414,0.00020523,2.981e-05,0.0,0 STARLINK-3752,1 52312U 22041BD  23306.51474879  .00002981  00000-0  20523-3 0  9996,2 52312  53.2168 341.5702 0001743  94.8777 265.2414 15.08850239 86312,6917.849,95.437,540.92,538.508,0.0
52312.0,STARLINK-3752,PAYLOAD,2023-11-03 02:39:42,15.08838107,0.0001867,53.2176,338.8894,99.0537,261.0666,-5.5653e-05,-1.174e-05,0.0,0 STARLINK-3752,1 52312U 22041BD  23307.11091429 -.00001174  00000-0 -55653-4 0  9997,2 52312  53.2176 338.8894 0001867  99.0537 261.0666 15.08838107 86403,6917.886,95.438,541.043,538.46,0.0
52312.0,STARLINK-3752,PAYLOAD,2023-11-03 09:01:15,15.08843097,0.0001805,53.218,337.7043,95.1703,264.9495,-1.3632e-06,-3.1e-06,0.0,0 STARLINK-3752,1 52312U 22041BD  23307.37587333 -.00000310  00000-0 -13632-5 0  9992,2 52312  53.2180 337.7043 0001805  95.1703 264.9495 15.08843097 86446,6917.871,95.437,540.985,538.487,0.0
52312.0,STARLINK-3752,PAYLOAD,2023-11-03 18:33:34,15.08838223,0.0001887,53.2179,335.9202,91.8336,268.2872,3.0256e-05,1.93e-06,0.0,0 STARLINK-3752,1 52312U 22041BD  23307.77331668  .00000193  00000-0  30256-4 0  9991,2 52312  53.2179 335.9202 0001887  91.8336 268.2872 15.08838223 86504,6917.886,95.438,541.056,538.445,0.0
52312.0,STARLINK-3752,PAYLOAD,2023-11-04 08:52:02,15.08843034,0.0001803,53.2175,333.2444,92.1073,268.0126,0.00015788,2.226e-05,0.0,0 STARLINK-3752,1 52312U 22041BD  23308.36947552  .00002226  00000-0  15788-3 0  9993,2 52312  53.2175 333.2444 0001803  92.1073 268.0126 15.08843034 86594,6917.871,95.437,540.983,538.489,0.0
52312.0,STARLINK-3752,PAYLOAD,2023-11-04 18:24:21,15.08841006,0.0001847,53.2179,331.4599,89.1467,270.9736,0.00012491,1.7e-05,0.0,0 STARLINK-3752,1 52312U 22041BD  23308.76691712  .00001700  00000-0  12491-3 0  9995,2 52312  53.2179 331.4599 0001847  89.1467 270.9736 15.08841006 86653,6917.877,95.437,541.02,538.465,0.0
52312.0,STARLINK-3752,PAYLOAD,2023-11-05 11:53:35,15.08860873,0.0001883,53.2179,328.1901,98.0426,262.078,0.0004975,7.643e-05,0.0,0 STARLINK-3752,1 52312U 22041BD  23309.49554935  .00007643  00000-0  49750-3 0  9991,2 52312  53.2179 328.1901 0001883  98.0426 262.0780 15.08860873 86763,6917.817,95.436,540.984,538.379,0.0
52312.0,STARLINK-3752,PAYLOAD,2023-11-05 18:15:08,15.08844643,0.0002219,53.2179,326.999,82.2585,277.8659,0.00012904,1.766e-05,0.0,0 STARLINK-3752,1 52312U 22041BD  23309.76051508  .00001766  00000-0  12904-3 0  9990,2 52312  53.2179 326.9990 0002219  82.2585 277.8659 15.08844643 86803,6917.866,95.437,541.266,538.196,0.0
52312.0,STARLINK-3752,PAYLOAD,2023-11-06 08:33:36,15.08862681,0.0002169,53.2178,324.3251,90.3413,269.7828,0.00063452,9.831e-05,0.0,0 STARLINK-3752,1 52312U 22041BD  23310.35666774  .00009831  00000-0  63452-3 0  9999,2 52312  53.2178 324.3251 0002169  90.3413 269.7828 15.08862681 86897,6917.811,95.436,541.177,538.176,0.0
52312.0,STARLINK-3752,PAYLOAD,2023-11-07 08:24:25,15.08786289,0.0001233,53.2164,319.8634,94.3184,265.7949,-0.00042777,-7.079e-05,0.0,0 STARLINK-3752,1 52312U 22041BD  23311.35030015 -.00007079  00000-0 -42777-3 0  9994,2 52312  53.2164 319.8634 0001233  94.3184 265.7949 15.08786289 87043,6918.045,95.441,540.763,539.057,0.0
52312.0,STARLINK-3752,PAYLOAD,2023-11-07 13:10:36,15.08783202,0.0001095,53.2162,318.9711,112.6625,247.4483,-0.00011818,-2.165e-05,0.0,0 STARLINK-3752,1 52312U 22041BD  23311.54902872 -.00002165  00000-0 -11818-3 0  9997,2 52312  53.2162 318.9711 0001095 112.6625 247.4483 15.08783202 87072,6918.054,95.441,540.677,539.161,0.0
52312.0,STARLINK-3752,PAYLOAD,2023-11-07 17:56:45,15.08824607,0.0001194,53.2167,318.0795,90.6934,269.4195,0.00082216,0.00012815,0.0,0 STARLINK-3752,1 52312U 22041BD  23311.74774341  .00012815  00000-0  82216-3 0  9998,2 52312  53.2167 318.0795 0001194  90.6934 269.4195 15.08824607 87101,6917.927,95.439,540.618,538.966,0.0
52312.0,STARLINK-3752,PAYLOAD,2023-11-08 09:50:36,15.08843923,5.86e-05,53.2164,315.1092,86.9889,273.117,0.0011226,0.00017625,0.0,0 STARLINK-3752,1 52312U 22041BD  23312.41014218  .00017625  00000-0  11226-2 0  9999,2 52312  53.2164 315.1092 0000586  86.9889 273.1170 15.08843923 87205,6917.868,95.437,540.139,539.328,0.0
52312.0,STARLINK-3752,PAYLOAD,2023-11-08 17:47:31,15.08853066,4.98e-05,53.216,313.6242,55.8661,304.2378,0.0013192,0.00020777,0.0,0 STARLINK-3752,1 52312U 22041BD  23312.74133761  .00020777  00000-0  13192-2 0  9996,2 52312  53.2160 313.6242 0000498  55.8661 304.2378 15.08853066 87256,6917.84,95.437,540.05,539.361,0.0
52312.0,STARLINK-3752,PAYLOAD,2023-11-09 03:19:50,15.08852314,8.24e-05,53.2167,311.8401,78.7383,281.3702,0.00052536,8.086e-05,0.0,0 STARLINK-3752,1 52312U 22041BD  23313.13877577  .00008086  00000-0  52536-3 0  9995,2 52312  53.2167 311.8401 0000824  78.7383 281.3702 15.08852314 87316,6917.843,95.437,540.278,539.138,0.0
